start=new Date('2023-02-17T00:00:00.000Z').valueOf();
sats=[{"PERIAPSIS":"546.089","SITE":"AFETR","REF_FRAME":"TEME","MEAN_MOTION_DDOT":"0.0000000000000","BSTAR":"0.00027854000000","FILE":"3798548","CLASSIFICATION_TYPE":"U","ECCENTRICITY":"0.00015270","MEAN_ANOMALY":"277.8606","RA_OF_ASC_NODE":"86.6951","GP_ID":"225648737","MEAN_MOTION":"15.06421949","CENTER_NAME":"EARTH","EPOCH":"2023-02-16T13:00:59.403744","COUNTRY_CODE":"US","TLE_LINE1":"1 48671U 21044AK  23047.54235421  .00003872  00000-0  27854-3 0  9998","LAUNCH_DATE":"2021-05-26","EPHEMERIS_TYPE":"0","PERIOD":"95.591","APOAPSIS":"548.204","INCLINATION":"53.0547","ARG_OF_PERICENTER":"82.2557","NORAD_CAT_ID":"48671","SEMIMAJOR_AXIS":"6925.281","MEAN_ELEMENT_THEORY":"SGP4","ELEMENT_SET_NO":"999","TIME_SYSTEM":"UTC","RCS_SIZE":"LARGE","OBJECT_TYPE":"PAYLOAD","DECAY_DATE":null,"MEAN_MOTION_DOT":"0.00003872","TLE_LINE2":"2 48671  53.0547  86.6951 0001527  82.2557 277.8606 15.06421949 96306","OBJECT_ID":"2021-044AK","REV_AT_EPOCH":"9630","OBJECT_NAME":"STARLINK-2745"},{"REF_FRAME":"TEME","BSTAR":"0.00014733000000","MEAN_MOTION_DDOT":"0.0000000000000","FILE":"3799178","PERIAPSIS":"546.319","SITE":"AFETR","COUNTRY_CODE":"US","MEAN_ANOMALY":"283.3370","ECCENTRICITY":"0.00012470","CLASSIFICATION_TYPE":"U","RA_OF_ASC_NODE":"85.5095","MEAN_MOTION":"15.06409961","GP_ID":"225684165","CENTER_NAME":"EARTH","EPOCH":"2023-02-16T19:17:50.682048","INCLINATION":"53.0538","ARG_OF_PERICENTER":"76.7758","SEMIMAJOR_AXIS":"6925.318","NORAD_CAT_ID":"48672","MEAN_ELEMENT_THEORY":"SGP4","TLE_LINE1":"1 48672U 21044AL  23047.80405882  .00001914  00000-0  14733-3 0  9995","LAUNCH_DATE":"2021-05-26","EPHEMERIS_TYPE":"0","APOAPSIS":"548.047","PERIOD":"95.592","TLE_LINE2":"2 48672  53.0538  85.5095 0001247  76.7758 283.3370 15.06409961 95505","MEAN_MOTION_DOT":"0.00001914","OBJECT_ID":"2021-044AL","REV_AT_EPOCH":"9550","OBJECT_NAME":"STARLINK-2705","TIME_SYSTEM":"UTC","ELEMENT_SET_NO":"999","RCS_SIZE":"LARGE","OBJECT_TYPE":"PAYLOAD","DECAY_DATE":null},{"GP_ID":"225683915","MEAN_MOTION":"15.06400831","EPOCH":"2023-02-16T19:12:33.096384","CENTER_NAME":"EARTH","ECCENTRICITY":"0.00027100","CLASSIFICATION_TYPE":"U","MEAN_ANOMALY":"281.5935","RA_OF_ASC_NODE":"85.5250","COUNTRY_CODE":"US","PERIAPSIS":"545.334","SITE":"AFETR","FILE":"3799178","REF_FRAME":"TEME","MEAN_MOTION_DDOT":"0.0000000000000","BSTAR":"0.00026865000000","OBJECT_TYPE":"PAYLOAD","DECAY_DATE":null,"ELEMENT_SET_NO":"999","TIME_SYSTEM":"UTC","RCS_SIZE":"LARGE","OBJECT_ID":"2021-044AM","REV_AT_EPOCH":"9550","OBJECT_NAME":"STARLINK-2711","MEAN_MOTION_DOT":"0.00003722","TLE_LINE2":"2 48673  53.0537  85.5250 0002710  78.5358 281.5935 15.06400831 95504","EPHEMERIS_TYPE":"0","PERIOD":"95.592","APOAPSIS":"549.088","TLE_LINE1":"1 48673U 21044AM  23047.80038306  .00003722  00000-0  26865-3 0  9997","LAUNCH_DATE":"2021-05-26","NORAD_CAT_ID":"48673","SEMIMAJOR_AXIS":"6925.346","MEAN_ELEMENT_THEORY":"SGP4","ARG_OF_PERICENTER":"78.5358","INCLINATION":"53.0537"},{"MEAN_MOTION_DOT":"-0.00025932","TLE_LINE2":"2 48674  53.0551  85.5514 0000941 174.0711 186.0289 15.06361010 95509","OBJECT_NAME":"STARLINK-2712","REV_AT_EPOCH":"9550","OBJECT_ID":"2021-044AN","RCS_SIZE":"LARGE","ELEMENT_SET_NO":"999","TIME_SYSTEM":"UTC","DECAY_DATE":null,"OBJECT_TYPE":"PAYLOAD","INCLINATION":"53.0551","ARG_OF_PERICENTER":"174.0711","MEAN_ELEMENT_THEORY":"SGP4","SEMIMAJOR_AXIS":"6925.468","NORAD_CAT_ID":"48674","LAUNCH_DATE":"2021-05-26","TLE_LINE1":"1 48674U 21044AN  23047.79574859 -.00025932  00000-0 -17302-2 0  9998","PERIOD":"95.595","APOAPSIS":"547.985","EPHEMERIS_TYPE":"0","COUNTRY_CODE":"US","RA_OF_ASC_NODE":"85.5514","ECCENTRICITY":"0.00009410","CLASSIFICATION_TYPE":"U","MEAN_ANOMALY":"186.0289","EPOCH":"2023-02-16T19:05:52.678176","CENTER_NAME":"EARTH","GP_ID":"225685167","MEAN_MOTION":"15.06361010","MEAN_MOTION_DDOT":"0.0000000000000","BSTAR":"-0.00173020000000","REF_FRAME":"TEME","FILE":"3799178","SITE":"AFETR","PERIAPSIS":"546.681"},{"OBJECT_ID":"2021-044AP","REV_AT_EPOCH":"9550","OBJECT_NAME":"STARLINK-2737","TLE_LINE2":"2 48675  53.0537  85.5642 0001841  79.9824 280.1373 15.06364521 95504","MEAN_MOTION_DOT":"-0.00003554","OBJECT_TYPE":"PAYLOAD","DECAY_DATE":null,"TIME_SYSTEM":"UTC","ELEMENT_SET_NO":"999","RCS_SIZE":"LARGE","NORAD_CAT_ID":"48675","SEMIMAJOR_AXIS":"6925.457","MEAN_ELEMENT_THEORY":"SGP4","INCLINATION":"53.0537","ARG_OF_PERICENTER":"79.9824","EPHEMERIS_TYPE":"0","APOAPSIS":"548.597","PERIOD":"95.594","TLE_LINE1":"1 48675U 21044AP  23047.79303892 -.00003554  00000-0 -21999-3 0  9990","LAUNCH_DATE":"2021-05-26","COUNTRY_CODE":"US","MEAN_MOTION":"15.06364521","GP_ID":"225684915","EPOCH":"2023-02-16T19:01:58.562688","CENTER_NAME":"EARTH","MEAN_ANOMALY":"280.1373","CLASSIFICATION_TYPE":"U","ECCENTRICITY":"0.00018410","RA_OF_ASC_NODE":"85.5642","FILE":"3799178","REF_FRAME":"TEME","BSTAR":"-0.00021999000000","MEAN_MOTION_DDOT":"0.0000000000000","PERIAPSIS":"546.047","SITE":"AFETR"},{"ECCENTRICITY":"0.00029610","CLASSIFICATION_TYPE":"U","MEAN_ANOMALY":"279.9128","RA_OF_ASC_NODE":"85.5785","GP_ID":"225683665","MEAN_MOTION":"15.06373294","CENTER_NAME":"EARTH","EPOCH":"2023-02-16T18:56:37.804416","COUNTRY_CODE":"US","PERIAPSIS":"545.245","SITE":"AFETR","REF_FRAME":"TEME","MEAN_MOTION_DDOT":"0.0000000000000","BSTAR":"-0.00114620000000","FILE":"3799178","ELEMENT_SET_NO":"999","TIME_SYSTEM":"UTC","RCS_SIZE":"LARGE","OBJECT_TYPE":"PAYLOAD","DECAY_DATE":null,"MEAN_MOTION_DOT":"-0.00017303","TLE_LINE2":"2 48676  53.0534  85.5785 0002961  80.2195 279.9128 15.06373294 95501","OBJECT_ID":"2021-044AQ","OBJECT_NAME":"STARLINK-2746","REV_AT_EPOCH":"9550","TLE_LINE1":"1 48676U 21044AQ  23047.78932644 -.00017303  00000-0 -11462-2 0  9993","LAUNCH_DATE":"2021-05-26","EPHEMERIS_TYPE":"0","PERIOD":"95.594","APOAPSIS":"549.346","ARG_OF_PERICENTER":"80.2195","INCLINATION":"53.0534","SEMIMAJOR_AXIS":"6925.430","NORAD_CAT_ID":"48676","MEAN_ELEMENT_THEORY":"SGP4"},{"FILE":"3799178","REF_FRAME":"TEME","BSTAR":"0.00217860000000","MEAN_MOTION_DDOT":"0.0000000000000","PERIAPSIS":"545.887","SITE":"AFETR","COUNTRY_CODE":"US","MEAN_MOTION":"15.06442828","GP_ID":"225684416","CENTER_NAME":"EARTH","EPOCH":"2023-02-16T14:03:19.553472","MEAN_ANOMALY":"278.4371","ECCENTRICITY":"0.00017260","CLASSIFICATION_TYPE":"U","RA_OF_ASC_NODE":"86.4934","SEMIMAJOR_AXIS":"6925.217","MEAN_ELEMENT_THEORY":"SGP4","NORAD_CAT_ID":"48677","ARG_OF_PERICENTER":"81.6813","INCLINATION":"53.0546","EPHEMERIS_TYPE":"0","APOAPSIS":"548.278","PERIOD":"95.589","TLE_LINE1":"1 48677U 21044AR  23047.58564298  .00032356  00000-0  21786-2 0  9991","LAUNCH_DATE":"2021-05-26","OBJECT_ID":"2021-044AR","REV_AT_EPOCH":"9547","OBJECT_NAME":"STARLINK-2719","TLE_LINE2":"2 48677  53.0546  86.4934 0001726  81.6813 278.4371 15.06442828 95471","MEAN_MOTION_DOT":"0.00032356","OBJECT_TYPE":"PAYLOAD","DECAY_DATE":null,"TIME_SYSTEM":"UTC","ELEMENT_SET_NO":"999","RCS_SIZE":"LARGE"},{"MEAN_MOTION":"15.06420941","GP_ID":"225640146","EPOCH":"2023-02-16T09:12:45.951552","CENTER_NAME":"EARTH","MEAN_ANOMALY":"256.8661","CLASSIFICATION_TYPE":"U","ECCENTRICITY":"0.00012460","RA_OF_ASC_NODE":"87.3976","COUNTRY_CODE":"US","PERIAPSIS":"546.286","SITE":"AFETR","FILE":"3798293","REF_FRAME":"TEME","BSTAR":"0.00057041000000","MEAN_MOTION_DDOT":"0.0000000000000","OBJECT_TYPE":"PAYLOAD","DECAY_DATE":null,"TIME_SYSTEM":"UTC","ELEMENT_SET_NO":"999","RCS_SIZE":"LARGE","OBJECT_ID":"2021-044AS","OBJECT_NAME":"STARLINK-2615","REV_AT_EPOCH":"9544","TLE_LINE2":"2 48678  53.0521  87.3976 0001246 103.2467 256.8661 15.06420941 95445","MEAN_MOTION_DOT":"0.00008230","EPHEMERIS_TYPE":"0","APOAPSIS":"548.012","PERIOD":"95.591","TLE_LINE1":"1 48678U 21044AS  23047.38386518  .00008230  00000-0  57041-3 0  9995","LAUNCH_DATE":"2021-05-26","SEMIMAJOR_AXIS":"6925.284","NORAD_CAT_ID":"48678","MEAN_ELEMENT_THEORY":"SGP4","ARG_OF_PERICENTER":"103.2467","INCLINATION":"53.0521"},{"RCS_SIZE":"LARGE","TIME_SYSTEM":"UTC","ELEMENT_SET_NO":"999","DECAY_DATE":null,"OBJECT_TYPE":"PAYLOAD","TLE_LINE2":"2 48679  53.0537  86.8278 0001832  68.9775 291.1410 15.06440214 95463","MEAN_MOTION_DOT":"0.00029287","REV_AT_EPOCH":"9546","OBJECT_NAME":"STARLINK-2648","OBJECT_ID":"2021-044AT","LAUNCH_DATE":"2021-05-26","TLE_LINE1":"1 48679U 21044AT  23047.51287246  .00029287  00000-0  19747-2 0  9994","APOAPSIS":"548.359","PERIOD":"95.590","EPHEMERIS_TYPE":"0","INCLINATION":"53.0537","ARG_OF_PERICENTER":"68.9775","MEAN_ELEMENT_THEORY":"SGP4","SEMIMAJOR_AXIS":"6925.225","NORAD_CAT_ID":"48679","RA_OF_ASC_NODE":"86.8278","MEAN_ANOMALY":"291.1410","CLASSIFICATION_TYPE":"U","ECCENTRICITY":"0.00018320","CENTER_NAME":"EARTH","EPOCH":"2023-02-16T12:18:32.180544","MEAN_MOTION":"15.06440214","GP_ID":"225638898","COUNTRY_CODE":"US","SITE":"AFETR","PERIAPSIS":"545.822","BSTAR":"0.00197470000000","MEAN_MOTION_DDOT":"0.0000000000000","REF_FRAME":"TEME","FILE":"3798293"},{"NORAD_CAT_ID":"48680","SEMIMAJOR_AXIS":"6925.266","MEAN_ELEMENT_THEORY":"SGP4","INCLINATION":"53.0531","ARG_OF_PERICENTER":"70.6838","EPHEMERIS_TYPE":"0","PERIOD":"95.590","APOAPSIS":"548.098","TLE_LINE1":"1 48680U 21044AU  23047.84092844  .00018139  00000-0  12326-2 0  9990","LAUNCH_DATE":"2021-05-26","OBJECT_ID":"2021-044AU","REV_AT_EPOCH":"9551","OBJECT_NAME":"STARLINK-2649","MEAN_MOTION_DOT":"0.00018139","TLE_LINE2":"2 48680  53.0531  85.3476 0001396  70.6838 289.4302 15.06426822 95513","OBJECT_TYPE":"PAYLOAD","DECAY_DATE":null,"ELEMENT_SET_NO":"999","TIME_SYSTEM":"UTC","RCS_SIZE":"LARGE","FILE":"3799178","REF_FRAME":"TEME","MEAN_MOTION_DDOT":"0.0000000000000","BSTAR":"0.00123260000000","PERIAPSIS":"546.165","SITE":"AFETR","COUNTRY_CODE":"US","GP_ID":"225684166","MEAN_MOTION":"15.06426822","EPOCH":"2023-02-16T20:10:56.217216","CENTER_NAME":"EARTH","CLASSIFICATION_TYPE":"U","ECCENTRICITY":"0.00013960","MEAN_ANOMALY":"289.4302","RA_OF_ASC_NODE":"85.3476"}];
